NORAD_CAT_ID,OBJECT_NAME,OBJECT_TYPE,EPOCH,MEAN_MOTION,ECCENTRICITY,INCLINATION,RA_OF_ASC_NODE,ARG_OF_PERICENTER,MEAN_ANOMALY,BSTAR,MEAN_MOTION_DOT,MEAN_MOTION_DDOT,TLE_LINE0,TLE_LINE1,TLE_LINE2,SEMIMAJOR_AXIS,PERIOD,APOGEE,PERIGEE,DECAYED
53724.0,STARLINK-4663,PAYLOAD,2024-08-12 15:13:38,15.08964977,0.0001947,53.2149,310.9537,96.4653,263.6561,0.0066763,0.00107967,0.0,0 STARLINK-4663,1 53724U 22107AA  24225.63447735  .00107967  00000-0  66763-2 0  9997,2 53724  53.2149 310.9537 0001947  96.4653 263.6561 15.08964977107293,6917.498,95.43,540.71,538.017,0.0
53724.0,STARLINK-4663,PAYLOAD,2024-08-13 05:32:08,15.08731481,0.0001679,53.2146,308.2781,84.8074,275.3109,0.0020575,0.00032511,0.0,0 STARLINK-4663,1 53724U 22107AA  24226.23065455  .00032511  00000-0  20575-2 0  9992,2 53724  53.2146 308.2781 0001679  84.8074 275.3109 15.08731481107381,6918.212,95.444,541.239,538.916,0.0
53724.0,STARLINK-4663,PAYLOAD,2024-08-13 11:53:42,15.08759329,0.0001198,53.2155,307.0879,84.7578,275.3551,0.0032637,0.00051921,0.0,0 STARLINK-4663,1 53724U 22107AA  24226.49563031  .00051921  00000-0  32637-2 0  9991,2 53724  53.2155 307.0879 0001198  84.7578 275.3551 15.08759329107887,6918.127,95.443,540.821,539.163,0.0
53724.0,STARLINK-4663,PAYLOAD,2024-08-13 16:39:52,15.08761878,0.0001466,53.2153,306.1955,89.4048,270.7112,0.0017009,0.00026828,0.0,0 STARLINK-4663,1 53724U 22107AA  24226.69436192  .00026828  00000-0  17009-2 0  9994,2 53724  53.2153 306.1955 0001466  89.4048 270.7112 15.08761878107910,6918.119,95.442,540.998,538.97,0.0
53724.0,STARLINK-4663,PAYLOAD,2024-08-14 05:22:58,15.08860971,0.0001399,53.2146,303.816,80.0274,280.0876,0.0044647,0.0007153,0.0,0 STARLINK-4663,1 53724U 22107AA  24227.22428517  .00071530  00000-0  44647-2 0  9994,2 53724  53.2146 303.8160 0001399  80.0274 280.0876 15.08860971107530,6917.816,95.436,540.649,538.713,0.0
53724.0,STARLINK-4663,PAYLOAD,2024-08-14 11:44:30,15.08881065,0.0001452,53.2166,302.627,71.1998,288.9151,0.002733,0.00043526,0.0,0 STARLINK-4663,1 53724U 22107AA  24227.48923969  .00043526  00000-0  27330-2 0  9997,2 53724  53.2166 302.6270 0001452  71.1998 288.9151 15.08881065107579,6917.755,95.435,540.624,538.615,0.0
53724.0,STARLINK-4663,PAYLOAD,2024-08-15 11:35:16,15.08859304,0.0001373,53.2157,298.167,78.295,281.8196,0.0013063,0.00020574,0.0,0 STARLINK-4663,1 53724U 22107AA  24228.48283069  .00020574  00000-0  13063-2 0  9994,2 53724  53.2157 298.1670 0001373  78.2950 281.8196 15.08859304108180,6917.821,95.436,540.636,538.737,0.0
53724.0,STARLINK-4663,PAYLOAD,2024-08-15 21:07:35,15.08850243,0.0001444,53.2171,296.3807,74.2882,285.8269,0.00013299,1.83e-05,0.0,0 STARLINK-4663,1 53724U 22107AA  24228.88026882  .00001830  00000-0  13299-3 0  9992,2 53724  53.2171 296.3807 0001444  74.2882 285.8269 15.08850243107780,6917.849,95.437,540.713,538.715,0.0
53724.0,STARLINK-4663,PAYLOAD,2024-08-16 09:50:40,15.08849645,0.0001512,53.2164,294.0045,77.029,283.0871,2.0048e-06,-2.56e-06,0.0,0 STARLINK-4663,1 53724U 22107AA  24229.41018667 -.00000256  00000-0  20048-5 0  9998,2 53724  53.2164 294.0045 0001512  77.0290 283.0871 15.08849645108325,6917.851,95.437,540.762,538.67,0.0
53724.0,STARLINK-4663,PAYLOAD,2024-08-17 04:55:15,15.08876713,0.0001259,53.214,290.4329,102.6793,257.4339,0.00043173,6.597e-05,0.0,0 STARLINK-4663,1 53724U 22107AA  24230.20504323  .00006597  00000-0  43173-3 0  9991,2 53724  53.2140 290.4329 0001259 102.6793 257.4339 15.08876713107986,6917.768,95.435,540.504,538.762,0.0
53724.0,STARLINK-4663,PAYLOAD,2024-08-17 08:06:02,15.08834522,0.0001127,53.2158,289.8457,78.7703,281.3415,-0.00041686,-6.915e-05,0.0,0 STARLINK-4663,1 53724U 22107AA  24230.33753446 -.00006915  00000-0 -41686-3 0  9990,2 53724  53.2158 289.8457 0001127  78.7703 281.3415 15.08834522108004,6917.897,95.438,540.542,538.982,0.0
53724.0,STARLINK-4663,PAYLOAD,2024-08-18 12:42:59,15.08853871,0.0001289,53.2144,284.4845,95.3052,264.8087,0.00061115,9.456e-05,0.0,0 STARLINK-4663,1 53724U 22107AA  24231.52985184  .00009456  00000-0  61115-3 0  9998,2 53724  53.2144 284.4845 0001289  95.3052 264.8087 15.08853871108180,6917.838,95.437,540.595,538.811,0.0
53724.0,STARLINK-4663,PAYLOAD,2024-08-19 12:33:47,15.08830097,0.0001253,53.2135,280.0332,58.6013,301.5101,0.00023623,3.473e-05,0.0,0 STARLINK-4663,1 53724U 22107AA  24232.52346904  .00003473  00000-0  23623-3 0  9995,2 53724  53.2135 280.0332 0001253  58.6013 301.5101 15.08830097108331,6917.911,95.438,540.642,538.909,0.0
53724.0,STARLINK-4663,PAYLOAD,2024-08-20 07:38:26,15.0883173,0.0001282,53.2139,276.4599,76.6578,283.4557,0.00046922,7.186e-05,0.0,0 STARLINK-4663,1 53724U 22107AA  24233.31835712  .00007186  00000-0  46922-3 0  9995,2 53724  53.2139 276.4599 0001282  76.6578 283.4557 15.08831730108919,6917.906,95.438,540.658,538.884,0.0
53724.0,STARLINK-4663,PAYLOAD,2024-08-21 09:04:35,15.08859267,0.0001413,53.2139,271.7012,76.2161,283.8988,0.00077089,0.00012008,0.0,0 STARLINK-4663,1 53724U 22107AA  24234.37819210  .00012008  00000-0  77089-3 0  9994,2 53724  53.2139 271.7012 0001413  76.2161 283.8988 15.08859267108611,6917.821,95.436,540.664,538.709,0.0
